SCD 1                   
1 22490U 93009B   26152.49266252  .00000437  00000+0  68675-4 0  9999
2 22490  24.9707 304.4817 0041833 332.1504  54.2695 14.46112655758840
TECHSAT 1B (GO-32)      
1 25397U 98043D   26154.57772251  .00000069  00000+0  49972-4 0  9993
2 25397  99.0064 146.9934 0000319 213.6137 146.5021 14.24425649449397
SCD 2                   
1 25504U 98060A   26152.36867558  .00000407  00000+0  62757-4 0  9994
2 25504  24.9936 169.7121 0016564 316.7853 171.9127 14.45518952458035
DLR-TUBSAT              
1 25757U 99029B   26154.79093184  .00000124  00000+0  42175-4 0  9993
2 25757  98.6692 149.8542 0014831  35.0690 325.1478 14.52423144431302
TERRA                   
1 25994U 99068A   26154.86758086  .00000441  00000+0  98709-4 0  9992
2 25994  97.9462 204.9413 0000804 267.2150 147.1978 14.61091990407666
MAROC-TUBSAT            
1 27004U 01056D   26154.71286204 -.00000033  00000+0  15373-4 0  9992
2 27004  99.8076 331.3188 0019899 175.2204 245.2208 13.70261869224349
AQUA                    
1 27424U 02022A   26154.85148399  .00000900  00000+0  18887-3 0  9993
2 27424  98.4270 123.8686 0001622  57.2494  29.5609 14.62136463281320
SHIYAN-1 (SY-1)         
1 28220U 04012A   26154.93825717  .00015941  00000+0  49559-3 0  9995
2 28220  97.8690 232.1498 0006632  74.7547 285.4427 15.33408091209068
AURA                    
1 28376U 04026A   26154.90798294  .00000908  00000+0  19361-3 0  9993
2 28376  98.3411 111.2521 0001398  70.5372 289.5979 14.61307733164276
IRS-P5 (CARTOSAT-1)     
1 28649U 05017A   26154.79065472  .00001545  00000+0  16156-3 0  9996
2 28649  97.5314 178.4628 0002683  97.4753 262.6771 14.91012649141824
SINAH 1                 
1 28893U 05043D   26154.93299306  .00000383  00000+0  82259-4 0  9994
2 28893  98.2845 289.1784 0013544 321.9397  38.0847 14.64148244 98586
RESURS-DK 1             
1 29228U 06021A   26154.61613614  .00002412  00000+0  14180-3 0  9993
2 29228  69.9332  14.6820 0005978 304.1389  55.9210 15.13152913100526
ARIRANG-2 (KOMPSAT-2)   
1 29268U 06031A   26154.98375319  .00000447  00000+0  92390-4 0  9991
2 29268  97.8303 340.0693 0015719 112.6406  14.9939 14.64651712 59542
LAPAN-TUBSAT            
1 29709U 07001A   26154.92135800  .00000043  00000+0  11574-4 0  9999
2 29709  98.1337 153.8465 0010937 225.3275 134.7049 14.85934847 49181
HAIYANG-1B              
1 31113U 07010A   26154.58027472  .00000100  00000+0  54012-4 0  9996
2 31113  98.3489 136.9535 0012340 239.3242 120.6726 14.31023350998685
COSMO-SKYMED 1          
1 31598U 07023A   26154.96782571  .00002311  00000+0  20583-3 0  9998
2 31598  97.8863 346.7136 0001584  82.2640 277.8761 14.97041170 27819
TERRASAR-X              
1 31698U 07026A   26152.44920595  .00000799  00000+0  41227-4 0  9990
2 31698  97.4458 160.3801 0001803  98.4388 261.7051 15.19149262 50835
WORLDVIEW-1 (WV-1)      
1 32060U 07041A   26154.89935419  .00006487  00000+0  26978-3 0  9998
2 32060  97.3864 274.8366 0003347  56.1171 304.0385 15.24110728 40855
YAOGAN-3                
1 32289U 07055A   26154.97155804  .00003550  00000+0  36714-3 0  9994
2 32289  97.8155 184.9804 0002051  92.2598 267.8855 14.90730173  3906
COSMO-SKYMED 2          
1 32376U 07059A   26154.92897260  .00000449  00000+0  62989-4 0  9997
2 32376  97.8884 338.7195 0001463  87.9261 272.2120 14.82160034    49
RADARSAT-2              
1 32382U 07061A   26154.88329106 -.00000082  00000+0 -14905-4 0  9991
2 32382  98.5774 162.0054 0001301  83.9850 276.1480 14.29981545964056
CARTOSAT-2A             
1 32783U 08021A   26154.92355899  .00000824  00000+0  11762-3 0  9995
2 32783  97.7636 204.0843 0012371 148.1042 212.0922 14.79218471976844
HUANJING 1A (HJ-1A)     
1 33320U 08041A   26154.95037215  .00000717  00000+0  92194-4 0  9997
2 33320  97.6677 141.3013 0018725 177.1085 183.0241 14.83953791956447
HUANJING 1B (HJ-1B)     
1 33321U 08041B   26154.98094054  .00000649  00000+0  84829-4 0  9995
2 33321  97.6511 144.5418 0035010 225.3679 134.4680 14.83291634956459
GEOEYE 1                
1 33331U 08042A   26154.89914278  .00000568  00000+0  11566-3 0  9993
2 33331  98.1237 228.9985 0005560 101.2933 258.8895 14.64712569948206
THEOS                   
1 33396U 08049A   26154.93452932  .00000018  00000+0  28332-4 0  9990
2 33396  98.5574 212.6476 0001292  81.9239 278.2085 14.20130631916085
COSMO-SKYMED 3          
1 33412U 08054A   26154.92907488  .00004343  00000+0  29482-3 0  9996
2 33412  97.8298  13.2802 0014478 316.8798  43.1293 15.06868132954943
YAOGAN-4                
1 33446U 08061A   26154.87678402  .00001167  00000+0  14933-3 0  9992
2 33446  97.9306  88.4859 0015608 111.7893 248.4984 14.83173206943693
GOSAT (IBUKI)           
1 33492U 09002A   26154.29738274  .00001196  00000+0  21934-3 0  9990
2 33492  98.0881 265.5546 0001658  91.7072 268.4322 14.67539132929420
DEIMOS-1                
1 35681U 09041A   26154.89221811  .00000978  00000+0  15165-3 0  9991
2 35681  97.7388 312.6970 0000703 140.4857 219.6404 14.75224689904922
